STARLINK-3528           
1 51714U 22016A   26047.28237578 -.00000158  00000+0  81587-5 0  9998
2 51714  53.2172  65.1981 0001368  89.0182 271.0967 15.08838583220191
STARLINK-3533           
1 51715U 22016B   26047.47372894  .00003690  00000+0  24968-3 0  9992
2 51715  53.2169  64.3720 0001475  92.3827 267.7334 15.08862041221357
STARLINK-3543           
1 51716U 22016C   26047.48014623  .00000091  00000+0  23832-4 0  9999
2 51716  53.2172  64.3332 0001342  99.4507 260.6637 15.08839732220221
STARLINK-3445           
1 51717U 22016D   26047.48479378  .00000974  00000+0  79277-4 0  9996
2 51717  53.2175  64.4003 0001424  93.4486 266.6670 15.08838547220228
STARLINK-3546           
1 51718U 22016E   26047.35386810  .00024063  00000+0  13244-2 0  9996
2 51718  53.2135  63.0661 0001194 249.5570 110.5296 15.13942545221358
STARLINK-3540           
1 51719U 22016F   26047.47649516  .00020666  00000+0  13156-2 0  9992
2 51719  53.2177  64.4282 0001453 107.1219 252.9933 15.08760094220221
STARLINK-3526           
1 51720U 22016G   26047.45533704  .00000049  00000+0  21176-4 0  9999
2 51720  53.2173  64.4148 0001263  97.8431 262.2704 15.08838732220214
STARLINK-3524           
1 51721U 22016H   26047.53262291 -.00000503  00000+0 -13521-4 0  9991
2 51721  53.2172  64.1063 0001385  96.9988 263.1162 15.08840173220231
STARLINK-3535           
1 51722U 22016J   26047.45070349 -.00000203  00000+0  53336-5 0  9999
2 51722  53.2170  64.4647 0001387  91.2663 268.8488 15.08842019220213
STARLINK-3529           
1 51724U 22016L   26047.44334921  .00001815  00000+0  13211-3 0  9994
2 51724  53.2171  64.4983 0001547  94.9486 265.1683 15.08845257220214
STARLINK-3522           
1 51725U 22016M   26047.32190145 -.00000061  00000+0  14232-4 0  9998
2 51725  53.2178  65.0447 0001474  95.2329 264.8831 15.08843713220196
STARLINK-3527           
1 51726U 22016N   26047.28602457  .00000239  00000+0  33124-4 0  9995
2 51726  53.2171  55.2047 0001475  89.9923 270.1238 15.08839529220335
STARLINK-3532           
1 51727U 22016P   26047.44703619 -.00000516  00000+0 -14337-4 0  9991
2 51727  53.2161  64.4826 0001408  92.9122 267.2031 15.08836822220211
STARLINK-3523           
1 51729U 22016R   26047.42218354  .00000077  00000+0  22930-4 0  9996
2 51729  53.2166  54.5945 0001365  97.6248 262.4899 15.08839308220359
STARLINK-3514           
1 51731U 22016T   26047.28234457  .00000333  00000+0  39045-4 0  9995
2 51731  53.2176  55.2228 0001574  83.1759 276.9412 15.08839771220337
STARLINK-3518           
1 51732U 22016U   26047.40010182  .00000485  00000+0  48555-4 0  9991
2 51732  53.2180  54.6926 0001419  88.1651 271.9504 15.08843323221498
STARLINK-3525           
1 51733U 22016V   26047.40842089  .00000490  00000+0  48846-4 0  9990
2 51733  53.2178  54.6657 0001400  91.0830 269.0323 15.08841930220352
STARLINK-3450           
1 51734U 22016W   26047.32282051  .00002013  00000+0  14449-3 0  9993
2 51734  53.2170  55.0386 0001031  94.1293 265.9817 15.08846597220331
STARLINK-3517           
1 51735U 22016X   26047.39641356  .00001886  00000+0  13647-3 0  9994
2 51735  53.2175  54.7091 0001626  69.0849 291.0317 15.08863055220359
STARLINK-3447           
1 51736U 22016Y   26047.45627620  .00000283  00000+0  35901-4 0  9998
2 51736  53.2179  54.5275 0001299  93.9032 266.2109 15.08838344220358
STARLINK-3509           
1 51737U 22016Z   26047.39275214 -.00002128  00000+0 -11566-3 0  9992
2 51737  53.2181  54.7198 0000980  94.7610 265.3494 15.08831647220340
STARLINK-3515           
1 51738U 22016AA  26047.30809866  .00000292  00000+0  36452-4 0  9990
2 51738  53.2182  55.1062 0001445  90.2904 269.8254 15.08841050220332
STARLINK-3516           
1 51739U 22016AB  26047.45162759 -.00001177  00000+0 -55847-4 0  9994
2 51739  53.2181  54.4613 0001492  91.4360 268.6803 15.08837471220358
STARLINK-3500           
1 51740U 22016AC  26047.43322431  .00000294  00000+0  36574-4 0  9992
2 51740  53.2167  54.5430 0001470  95.7106 264.4054 15.08840449220354
STARLINK-3520           
1 51741U 22016AD  26047.44521585  .00000491  00000+0  48947-4 0  9991
2 51741  53.2174  54.4990 0001408  91.8908 268.2246 15.08844781220359
STARLINK-3521           
1 51742U 22016AE  26047.44796929 -.00000177  00000+0  69560-5 0  9995
2 51742  53.2176  54.6694 0001289  91.9799 268.1341 15.08837424220352
STARLINK-3512           
1 51743U 22016AF  26047.25013427  .00000645  00000+0  58610-4 0  9992
2 51743  53.2190  45.2856 0001571  79.9135 280.2034 15.08843556220468
STARLINK-3452           
1 51744U 22016AG  26047.42586580 -.00003467  00000+0 -19986-3 0  9996
2 51744  53.2178  54.6069 0001363  86.7523 273.3625 15.08841503220358
STARLINK-3449           
1 51745U 22016AH  26047.43690234  .00000274  00000+0  35297-4 0  9995
2 51745  53.2170  54.5267 0001430  95.8355 264.2801 15.08840410220350
STARLINK-3502           
1 51746U 22016AJ  26047.38726110  .00000377  00000+0  41805-4 0  9999
2 51746  53.2179  44.7617 0001408  87.1950 272.9204 15.08842140220489
STARLINK-3446           
1 51747U 22016AK  26047.43051325  .00000051  00000+0  21267-4 0  9994
2 51747  53.2182  54.6016 0001448 113.5296 246.5848 15.08844007220359
STARLINK-3501           
1 51748U 22016AL  26047.31269865  .00001026  00000+0  82506-4 0  9998
2 51748  53.2177  45.0852 0001361  92.4898 267.6250 15.08847292220476
STARLINK-3451           
1 51749U 22016AM  26047.40748606  .00000156  00000+0  27904-4 0  9998
2 51749  53.2181  54.8434 0001522  80.4249 279.6915 15.08842306220340
STARLINK-3505           
1 51750U 22016AN  26047.37254324  .00001016  00000+0  81943-4 0  9994
2 51750  53.2189  44.8260 0001467  81.9521 278.1637 15.08824767220484
STARLINK-3506           
1 51751U 22016AP  26047.25109750  .00000390  00000+0  42583-4 0  9995
2 51751  53.2174  45.3719 0001398  92.4434 267.6719 15.08842352220469
STARLINK-3511           
1 51752U 22016AQ  26047.42773324  .00000952  00000+0  77876-4 0  9996
2 51752  53.2182  44.5006 0001384  94.4683 265.6467 15.08839046220499
STARLINK-3507           
1 51753U 22016AR  26047.37622620  .00000340  00000+0  39465-4 0  9996
2 51753  53.2177  44.8102 0001332  97.7761 262.3382 15.08840718220487
STARLINK-3457           
1 51754U 22016AS  26047.40466768  .00000790  00000+0  67683-4 0  9992
2 51754  53.2166  44.4304 0001404  94.5879 265.5274 15.08846339220492
STARLINK-3460           
1 51755U 22016AT  26047.43046681  .00000375  00000+0  41644-4 0  9992
2 51755  53.2183  44.5563 0001386  91.4209 268.6942 15.08834788220493
STARLINK-3513           
1 51756U 22016AU  26047.40103125 -.00000336  00000+0 -29967-5 0  9991
2 51756  53.2180  44.6893 0001430 103.8991 256.2160 15.08838497220490
STARLINK-3459           
1 51757U 22016AV  26047.26582204  .00001560  00000+0  11610-3 0  9997
2 51757  53.2182  45.3077 0001505  89.8661 270.2503 15.08843354220478
STARLINK-3458           
1 51758U 22016AW  26047.38997496  .00000395  00000+0  42915-4 0  9992
2 51758  53.2181  44.6912 0001926  70.4261 289.6939 15.08854319221636
STARLINK-3456           
1 51759U 22016AX  26047.39365641  .00000907  00000+0  75067-4 0  9998
2 51759  53.2181  44.7242 0001399  96.3171 263.7980 15.08846926220492
STARLINK-3622           
1 51768U 22017A   26047.49027019 -.00000978  00000+0 -43387-4 0  9994
2 51768  53.2172  74.2869 0001409  96.0304 264.0848 15.08832552220848
STARLINK-3621           
1 51769U 22017B   26047.48289292  .00000518  00000+0  50629-4 0  9992
2 51769  53.2164  74.3176 0001400 103.5395 256.5753 15.08851135219406
STARLINK-3612           
1 51770U 22017C   26047.48658258 -.00000314  00000+0 -16211-5 0  9992
2 51770  53.2169  74.3030 0001343  93.7579 266.3567 15.08842757219415
STARLINK-3614           
1 51771U 22017D   26047.47921672  .00000344  00000+0  39703-4 0  9996
2 51771  53.2164  74.3263 0001432  87.9742 272.1414 15.08844505219403
STARLINK-3623           
1 51772U 22017E   26047.47185823  .00001371  00000+0  10426-3 0  9998
2 51772  53.2167  74.3703 0001425  83.3660 276.7494 15.08831437219393
STARLINK-3624           
1 51773U 22017F   26047.34401513  .00000210  00000+0  31259-4 0  9991
2 51773  53.2171  74.9153 0001328  81.9109 278.2034 15.08843117219382
STARLINK-3629           
1 51774U 22017G   26047.46450291  .00000923  00000+0  76062-4 0  9994
2 51774  53.2179  74.4016 0001548  76.7453 283.3712 15.08844518219366
STARLINK-3620           
1 51775U 22017H   26047.47554366  .00000313  00000+0  37750-4 0  9998
2 51775  53.2163  74.3525 0001323  88.1821 271.9323 15.08840540219408
STARLINK-3608           
1 51776U 22017J   26047.46082507  .00000336  00000+0  39187-4 0  9992
2 51776  53.2172  74.4224 0001448  86.0397 274.0761 15.08843519219363
STARLINK-3625           
1 51777U 22017K   26047.46546027  .00000459  00000+0  46955-4 0  9992
2 51777  53.2173  74.3722 0001309  91.0460 269.0682 15.08833138219395
STARLINK-3615           
1 51778U 22017L   26047.27037083 -.00000485  00000+0 -12412-4 0  9991
2 51778  53.2177  65.1475 0001367 103.6230 256.4914 15.08837276219320
STARLINK-3611           
1 51779U 22017M   26047.46179271  .00000382  00000+0  42082-4 0  9999
2 51779  53.2173  74.4645 0001478  77.8264 282.2894 15.08837041219369
STARLINK-3617           
1 51780U 22017N   26047.44610573  .00000421  00000+0  44537-4 0  9995
2 51780  53.2171  74.4770 0001361  91.4727 268.6422 15.08839687219212
STARLINK-3580           
1 51781U 22017P   26047.44978152  .00000110  00000+0  24972-4 0  9992
2 51781  53.2171  74.4317 0001381  96.8259 263.2890 15.08838562219212
STARLINK-3616           
1 51782U 22017Q   26047.48567947  .00000742  00000+0  64730-4 0  9990
2 51782  53.2170  84.4632 0001467  90.7226 269.3934 15.08844566218985
STARLINK-3628           
1 51783U 22017R   26047.45444269  .00002657  00000+0  18499-3 0  9996
2 51783  53.2165  74.4982 0001079 104.1089 256.0023 15.08835880219211
